NORAD_CAT_ID,OBJECT_NAME,OBJECT_TYPE,EPOCH,MEAN_MOTION,ECCENTRICITY,INCLINATION,RA_OF_ASC_NODE,ARG_OF_PERICENTER,MEAN_ANOMALY,BSTAR,MEAN_MOTION_DOT,MEAN_MOTION_DDOT,TLE_LINE0,TLE_LINE1,TLE_LINE2,SEMIMAJOR_AXIS,PERIOD,APOGEE,PERIGEE,DECAYED
53173.0,STARLINK-4300,PAYLOAD,2024-03-16 09:21:07,15.08836781,0.0001539,53.2158,146.1296,108.8793,251.2366,0.00011306,1.512e-05,0.0,0 STARLINK-4300,1 53173U 22083AT  24076.38966676  .00001512  00000-0  11306-3 0  9997,2 53173  53.2158 146.1296 0001539 108.8793 251.2366 15.08836781 93147,6917.89,95.438,540.82,538.691,0.0
53173.0,STARLINK-4300,PAYLOAD,2024-03-17 10:47:17,15.08841294,0.0001512,53.2168,141.3719,107.6415,252.4742,9.3462e-05,1.2e-05,0.0,0 STARLINK-4300,1 53173U 22083AT  24077.44950568  .00001200  00000-0  93462-4 0  9996,2 53173  53.2168 141.3719 0001512 107.6415 252.4742 15.08841294 93308,6917.876,95.437,540.787,538.695,0.0
53173.0,STARLINK-4300,PAYLOAD,2024-03-18 10:38:04,15.08838133,0.0001494,53.2166,136.9108,110.3606,249.7547,6.8012e-05,7.95e-06,0.0,0 STARLINK-4300,1 53173U 22083AT  24078.44310766  .00000795  00000-0  68012-4 0  9998,2 53173  53.2166 136.9108 0001494 110.3606 249.7547 15.08838133 92815,6917.886,95.438,540.785,538.718,0.0
53173.0,STARLINK-4300,PAYLOAD,2024-03-19 10:28:51,15.08846543,0.0001444,53.2162,132.45,100.5128,259.6027,0.00010433,1.373e-05,0.0,0 STARLINK-4300,1 53173U 22083AT  24079.43670232  .00001373  00000-0  10433-3 0  9991,2 53173  53.2162 132.4500 0001444 100.5128 259.6027 15.08846543 93608,6917.86,95.437,540.724,538.726,0.0
53173.0,STARLINK-4300,PAYLOAD,2024-03-20 08:44:15,15.08835341,0.0002039,53.2164,128.2873,143.1132,217.0,5.219e-05,5.42e-06,0.0,0 STARLINK-4300,1 53173U 22083AT  24080.36406949  .00000542  00000-0  52190-4 0  9991,2 53173  53.2164 128.2873 0002039 143.1132 217.0000 15.08835341 93743,6917.895,95.438,541.17,538.349,0.0
53173.0,STARLINK-4300,PAYLOAD,2024-03-21 11:45:48,15.08847799,0.0001628,53.2159,123.2317,115.4003,244.7158,0.00019994,2.896e-05,0.0,0 STARLINK-4300,1 53173U 22083AT  24081.49014653  .00002896  00000-0  19994-3 0  9991,2 53173  53.2159 123.2317 0001628 115.4003 244.7158 15.08847799 93917,6917.857,95.437,540.848,538.595,0.0
53173.0,STARLINK-4300,PAYLOAD,2024-03-22 10:01:12,15.08856321,0.0001521,53.2153,119.0685,106.852,253.2639,0.0004565,6.988e-05,0.0,0 STARLINK-4300,1 53173U 22083AT  24082.41750415  .00006988  00000-0  45650-3 0  9991,2 53173  53.2153 119.0685 0001521 106.8520 253.2639 15.08856321 93417,6917.831,95.437,540.748,538.643,0.0
53173.0,STARLINK-4300,PAYLOAD,2024-03-23 01:55:03,15.08849181,0.0001627,53.2144,116.0987,77.1858,282.9316,4.1544e-05,3.73e-06,0.0,0 STARLINK-4300,1 53173U 22083AT  24083.07990287  .00000373  00000-0  41544-4 0  9998,2 53173  53.2144 116.0987 0001627  77.1858 282.9316 15.08849181 94159,6917.852,95.437,540.843,538.592,0.0
53173.0,STARLINK-4300,PAYLOAD,2024-03-23 11:27:23,15.08836663,0.0001354,53.2155,114.3102,107.8751,252.2389,-0.00010318,-1.929e-05,0.0,0 STARLINK-4300,1 53173U 22083AT  24083.47735073 -.00001929  00000-0 -10318-3 0  9996,2 53173  53.2155 114.3102 0001354 107.8751 252.2389 15.08836663 94219,6917.891,95.438,540.692,538.819,0.0
53173.0,STARLINK-4300,PAYLOAD,2024-03-23 19:24:18,15.0883871,0.0001323,53.2153,112.8261,92.253,267.8614,-3.7486e-05,-8.84e-06,0.0,0 STARLINK-4300,1 53173U 22083AT  24083.80855077 -.00000884  00000-0 -37486-4 0  9995,2 53173  53.2153 112.8261 0001323  92.2530 267.8614 15.08838710 93626,6917.884,95.438,540.665,538.834,0.0
53173.0,STARLINK-4300,PAYLOAD,2024-03-24 08:07:23,15.08846668,0.0001344,53.2147,110.4482,76.0941,284.02,0.00025307,3.743e-05,0.0,0 STARLINK-4300,1 53173U 22083AT  24084.33846828  .00003743  00000-0  25307-3 0  9991,2 53173  53.2147 110.4482 0001344  76.0941 284.0200 15.08846668 94340,6917.86,95.437,540.655,538.795,0.0
53173.0,STARLINK-4300,PAYLOAD,2024-03-24 19:15:04,15.08875005,0.0001591,53.2146,108.3659,78.0563,282.0608,0.00088367,0.00013817,0.0,0 STARLINK-4300,1 53173U 22083AT  24084.80214046  .00013817  00000-0  88367-3 0  9992,2 53173  53.2146 108.3659 0001591  78.0563 282.0608 15.08875005 94412,6917.773,95.435,540.739,538.538,0.0
53173.0,STARLINK-4300,PAYLOAD,2024-03-25 04:47:24,15.08831624,0.0001296,53.2148,106.5811,84.1808,275.9332,-4.2301e-05,-9.61e-06,0.0,0 STARLINK-4300,1 53173U 22083AT  24085.19959194 -.00000961  00000-0 -42301-4 0  9992,2 53173  53.2148 106.5811 0001296  84.1808 275.9332 15.08831624 94476,6917.906,95.438,540.668,538.874,0.0
53173.0,STARLINK-4300,PAYLOAD,2024-03-25 11:08:57,15.08844841,0.0001403,53.2149,105.3909,89.9945,270.1208,0.00062276,9.638e-05,0.0,0 STARLINK-4300,1 53173U 22083AT  24085.46454907  .00009638  00000-0  62276-3 0  9994,2 53173  53.2149 105.3909 0001403  89.9945 270.1208 15.08844841 94516,6917.866,95.437,540.701,538.76,0.0
53173.0,STARLINK-4300,PAYLOAD,2024-03-26 04:38:12,15.08826027,0.0001364,53.2142,102.1153,92.3207,267.7941,0.0010843,0.00017004,0.0,0 STARLINK-4300,1 53173U 22083AT  24086.19320457  .00017004  00000-0  10843-2 0  9995,2 53173  53.2142 102.1153 0001364  92.3207 267.7941 15.08826027 94624,6917.923,95.438,540.732,538.844,0.0
53173.0,STARLINK-4300,PAYLOAD,2024-03-26 07:48:59,15.08824487,0.000149,53.2152,101.5211,94.424,265.6922,7.2638e-05,8.68e-06,0.0,0 STARLINK-4300,1 53173U 22083AT  24086.32568482  .00000868  00000-0  72638-4 0  9994,2 53173  53.2152 101.5211 0001490  94.4240 265.6922 15.08824487 94009,6917.928,95.439,540.824,538.762,0.0
53173.0,STARLINK-4300,PAYLOAD,2024-03-26 17:21:18,15.08823692,0.0001492,53.216,99.7369,96.2735,263.8427,0.000115,1.542e-05,0.0,0 STARLINK-4300,1 53173U 22083AT  24086.72313010  .00001542  00000-0  11500-3 0  9993,2 53173  53.2160  99.7369 0001492  96.2735 263.8427 15.08823692 94705,6917.93,95.439,540.827,538.763,0.0
53173.0,STARLINK-4300,PAYLOAD,2024-03-27 07:39:46,15.08839373,0.0001295,53.2156,97.0643,101.248,258.8658,0.00047076,7.212e-05,0.0,0 STARLINK-4300,1 53173U 22083AT  24087.31928991  .00007212  00000-0  47076-3 0  9996,2 53173  53.2156  97.0643 0001295 101.2480 258.8658 15.08839373 94793,6917.882,95.438,540.643,538.851,0.0
53173.0,STARLINK-4300,PAYLOAD,2024-03-27 17:12:05,15.08850039,0.0001305,53.2155,95.2795,102.0441,258.0697,0.00058437,9.027e-05,0.0,0 STARLINK-4300,1 53173U 22083AT  24087.71672678  .00009027  00000-0  58437-3 0  9997,2 53173  53.2155  95.2795 0001305 102.0441 258.0697 15.08850039 94212,6917.85,95.437,540.617,538.812,0.0
53173.0,STARLINK-4300,PAYLOAD,2024-03-28 09:05:56,15.08851739,0.0001514,53.2171,92.3077,104.9364,255.1796,0.00032625,4.91e-05,0.0,0 STARLINK-4300,1 53173U 22083AT  24088.37912402  .00004910  00000-0  32625-3 0  9999,2 53173  53.2171  92.3077 0001514 104.9364 255.1796 15.08851739 94955,6917.845,95.437,540.757,538.662,0.0
53173.0,STARLINK-4300,PAYLOAD,2024-03-28 17:02:51,15.08863594,0.0001343,53.2158,90.8197,93.8785,266.236,0.00051792,7.97e-05,0.0,0 STARLINK-4300,1 53173U 22083AT  24088.71031739  .00007970  00000-0  51792-3 0  9997,2 53173  53.2158  90.8197 0001343  93.8785 266.2360 15.08863594 94366,6917.808,95.436,540.602,538.744,0.0
53173.0,STARLINK-4300,PAYLOAD,2024-03-29 08:56:42,15.08847354,0.0001498,53.2164,87.847,97.1934,262.9228,4.2484e-05,3.88e-06,0.0,0 STARLINK-4300,1 53173U 22083AT  24089.37271798  .00000388  00000-0  42484-4 0  9996,2 53173  53.2164  87.8470 0001498  97.1934 262.9228 15.08847354 95102,6917.858,95.437,540.759,538.687,0.0
53173.0,STARLINK-4300,PAYLOAD,2024-03-29 16:53:38,15.08853055,0.0001515,53.2169,86.3601,96.2231,263.8934,0.00021921,3.204e-05,0.0,0 STARLINK-4300,1 53173U 22083AT  24089.70391657  .00003204  00000-0  21921-3 0  9992,2 53173  53.2169  86.3601 0001515  96.2231 263.8934 15.08853055 94510,6917.84,95.437,540.754,538.657,0.0
53173.0,STARLINK-4300,PAYLOAD,2024-03-30 04:01:20,15.08839432,0.0001586,53.2162,84.2766,93.3699,266.7474,-4.0804e-05,-9.37e-06,0.0,0 STARLINK-4300,1 53173U 22083AT  24090.16760045 -.00000937  00000-0 -40804-4 0  9999,2 53173  53.2162  84.2766 0001586  93.3699 266.7474 15.08839432 95229,6917.882,95.438,540.844,538.65,0.0
53173.0,STARLINK-4300,PAYLOAD,2024-03-30 08:47:30,15.08842672,0.0001537,53.2157,83.3846,90.1249,269.9919,-2.375e-06,-3.26e-06,0.0,0 STARLINK-4300,1 53173U 22083AT  24090.36631987 -.00000326  00000-0 -23750-5 0  9997,2 53173  53.2157  83.3846 0001537  90.1249 269.9919 15.08842672 94615,6917.872,95.437,540.8,538.674,0.0
53173.0,STARLINK-4300,PAYLOAD,2024-03-30 16:44:24,15.08860075,0.0001523,53.2178,81.8968,90.2847,269.832,0.00013452,1.855e-05,0.0,0 STARLINK-4300,1 53173U 22083AT  24090.69751021  .00001855  00000-0  13452-3 0  9997,2 53173  53.2178  81.8968 0001523  90.2847 269.8320 15.08860075 95305,6917.819,95.436,540.738,538.63,0.0
53173.0,STARLINK-4300,PAYLOAD,2024-03-31 05:27:30,15.08845129,0.0001315,53.2172,79.5197,92.9091,267.2052,0.00018074,2.59e-05,0.0,0 STARLINK-4300,1 53173U 22083AT  24091.22743766  .00002590  00000-0  18074-3 0  9996,2 53173  53.2172  79.5197 0001315  92.9091 267.2052 15.08845129 95381,6917.865,95.437,540.639,538.82,0.0
53173.0,STARLINK-4300,PAYLOAD,2024-03-31 08:38:16,15.08853653,0.0001571,53.2183,78.9243,102.9825,257.1343,0.00024876,3.675e-05,0.0,0 STARLINK-4300,1 53173U 22083AT  24091.35991308  .00003675  00000-0  24876-3 0  9999,2 53173  53.2183  78.9243 0001571 102.9825 257.1343 15.08853653 95404,6917.839,95.437,540.79,538.617,0.0
53173.0,STARLINK-4300,PAYLOAD,2024-03-31 16:35:11,15.08855296,0.0001427,53.2168,77.4348,100.68,259.4353,0.000236,3.472e-05,0.0,0 STARLINK-4300,1 53173U 22083AT  24091.69110853  .00003472  00000-0  23600-3 0  9993,2 53173  53.2168  77.4348 0001427 100.6800 259.4353 15.08855296 94810,6917.834,95.437,540.686,538.711,0.0
53173.0,STARLINK-4300,PAYLOAD,2024-04-01 05:18:18,15.08831388,0.0001278,53.217,75.0589,89.2632,270.8506,-5.5909e-06,-3.77e-06,0.0,0 STARLINK-4300,1 53173U 22083AT  24092.22104263 -.00000377  00000-0 -55909-5 0  9993,2 53173  53.2170  75.0589 0001278  89.2632 270.8506 15.08831388 95536,6917.907,95.438,540.656,538.888,0.0
